[{"OBJECT_NAME":"STARLINK-36605","OBJECT_ID":"2026-018R","EPOCH":"2026-02-12T06:00:02.999808","MEAN_MOTION":15.8018525,"ECCENTRICITY":0.0001714,"INCLINATION":97.2836,"RA_OF_ASC_NODE":107.7835,"ARG_OF_PERICENTER":93.2074,"MEAN_ANOMALY":208.0025,"EPHEMERIS_TYPE":0,"CLASSIFICATION_TYPE":"U","NORAD_CAT_ID":67604,"ELEMENT_SET_NO":999,"REV_AT_EPOCH":325,"BSTAR":-0.012092857,"MEAN_MOTION_DOT":-0.01957975,"MEAN_MOTION_DDOT":0},{"OBJECT_NAME":"STARLINK-36281","OBJECT_ID":"2026-018S","EPOCH":"2026-02-12T06:00:02.999808","MEAN_MOTION":15.80819118,"ECCENTRICITY":0.00014988,"INCLINATION":97.2836,"RA_OF_ASC_NODE":107.7807,"ARG_OF_PERICENTER":89.5505,"MEAN_ANOMALY":205.7409,"EPHEMERIS_TYPE":0,"CLASSIFICATION_TYPE":"U","NORAD_CAT_ID":67605,"ELEMENT_SET_NO":999,"REV_AT_EPOCH":330,"BSTAR":-9.3723068e-5,"MEAN_MOTION_DOT":-0.0001806,"MEAN_MOTION_DDOT":0},{"OBJECT_NAME":"STARLINK-35843","OBJECT_ID":"2026-018T","EPOCH":"2026-02-12T06:00:02.999808","MEAN_MOTION":15.80827787,"ECCENTRICITY":0.00012231,"INCLINATION":97.2836,"RA_OF_ASC_NODE":107.7876,"ARG_OF_PERICENTER":96.7805,"MEAN_ANOMALY":215.0701,"EPHEMERIS_TYPE":0,"CLASSIFICATION_TYPE":"U","NORAD_CAT_ID":67606,"ELEMENT_SET_NO":999,"REV_AT_EPOCH":331,"BSTAR":-0.00018535176,"MEAN_MOTION_DOT":-0.0003552,"MEAN_MOTION_DDOT":0},{"OBJECT_NAME":"STARLINK-36351","OBJECT_ID":"2026-018U","EPOCH":"2026-02-12T06:00:02.999808","MEAN_MOTION":15.8085299,"ECCENTRICITY":0.00011142,"INCLINATION":97.2837,"RA_OF_ASC_NODE":107.7896,"ARG_OF_PERICENTER":87.9136,"MEAN_ANOMALY":228.9494,"EPHEMERIS_TYPE":0,"CLASSIFICATION_TYPE":"U","NORAD_CAT_ID":67607,"ELEMENT_SET_NO":999,"REV_AT_EPOCH":331,"BSTAR":-0.00017706848,"MEAN_MOTION_DOT":-0.00033983,"MEAN_MOTION_DDOT":0},{"OBJECT_NAME":"STARLINK-36411","OBJECT_ID":"2026-018V","EPOCH":"2026-02-12T06:00:02.999808","MEAN_MOTION":15.80846193,"ECCENTRICITY":0.00010569,"INCLINATION":97.2811,"RA_OF_ASC_NODE":107.7923,"ARG_OF_PERICENTER":77.6377,"MEAN_ANOMALY":246.9849,"EPHEMERIS_TYPE":0,"CLASSIFICATION_TYPE":"U","NORAD_CAT_ID":67608,"ELEMENT_SET_NO":999,"REV_AT_EPOCH":330,"BSTAR":-0.0001960451,"MEAN_MOTION_DOT":-0.00037583,"MEAN_MOTION_DDOT":0},{"OBJECT_NAME":"STARLINK-36312","OBJECT_ID":"2026-018W","EPOCH":"2026-02-12T06:00:02.999808","MEAN_MOTION":15.80858828,"ECCENTRICITY":0.00011266,"INCLINATION":97.2814,"RA_OF_ASC_NODE":107.7955,"ARG_OF_PERICENTER":84.2956,"MEAN_ANOMALY":247.0835,"EPHEMERIS_TYPE":0,"CLASSIFICATION_TYPE":"U","NORAD_CAT_ID":67609,"ELEMENT_SET_NO":999,"REV_AT_EPOCH":331,"BSTAR":-0.0002765104,"MEAN_MOTION_DOT":-0.00052889,"MEAN_MOTION_DDOT":0},{"OBJECT_NAME":"STARLINK-36387","OBJECT_ID":"2026-018X","EPOCH":"2026-02-12T06:00:02.999808","MEAN_MOTION":15.80818746,"ECCENTRICITY":0.00013502,"INCLINATION":97.2816,"RA_OF_ASC_NODE":107.7984,"ARG_OF_PERICENTER":94.0962,"MEAN_ANOMALY":245.4885,"EPHEMERIS_TYPE":0,"CLASSIFICATION_TYPE":"U","NORAD_CAT_ID":67610,"ELEMENT_SET_NO":999,"REV_AT_EPOCH":331,"BSTAR":-0.00016429143,"MEAN_MOTION_DOT":-0.00031502,"MEAN_MOTION_DDOT":0},{"OBJECT_NAME":"STARLINK-36636","OBJECT_ID":"2026-018Y","EPOCH":"2026-02-12T06:00:02.999808","MEAN_MOTION":15.80870556,"ECCENTRICITY":0.00015509,"INCLINATION":97.2747,"RA_OF_ASC_NODE":107.7997,"ARG_OF_PERICENTER":68.9245,"MEAN_ANOMALY":276.7395,"EPHEMERIS_TYPE":0,"CLASSIFICATION_TYPE":"U","NORAD_CAT_ID":67611,"ELEMENT_SET_NO":999,"REV_AT_EPOCH":326,"BSTAR":-0.00076336426,"MEAN_MOTION_DOT":-0.00144337,"MEAN_MOTION_DDOT":0},{"OBJECT_NAME":"STARLINK-36407","OBJECT_ID":"2026-018Z","EPOCH":"2026-02-12T06:00:02.999808","MEAN_MOTION":15.80820619,"ECCENTRICITY":0.00010894,"INCLINATION":97.2809,"RA_OF_ASC_NODE":107.8031,"ARG_OF_PERICENTER":94.8441,"MEAN_ANOMALY":256.0297,"EPHEMERIS_TYPE":0,"CLASSIFICATION_TYPE":"U","NORAD_CAT_ID":67612,"ELEMENT_SET_NO":999,"REV_AT_EPOCH":336,"BSTAR":-6.2119238e-5,"MEAN_MOTION_DOT":-0.00012026,"MEAN_MOTION_DDOT":0},{"OBJECT_NAME":"STARLINK-36597","OBJECT_ID":"2026-018AA","EPOCH":"2026-02-12T06:00:02.999808","MEAN_MOTION":15.80852493,"ECCENTRICITY":0.00014263,"INCLINATION":97.2805,"RA_OF_ASC_NODE":107.8051,"ARG_OF_PERICENTER":71.6849,"MEAN_ANOMALY":285.0003,"EPHEMERIS_TYPE":0,"CLASSIFICATION_TYPE":"U","NORAD_CAT_ID":67613,"ELEMENT_SET_NO":999,"REV_AT_EPOCH":326,"BSTAR":-0.00016466934,"MEAN_MOTION_DOT":-0.00031623,"MEAN_MOTION_DDOT":0},{"OBJECT_NAME":"STARLINK-36548","OBJECT_ID":"2026-020A","EPOCH":"2026-02-12T06:00:02.999808","MEAN_MOTION":15.76349425,"ECCENTRICITY":0.00017876,"INCLINATION":42.9986,"RA_OF_ASC_NODE":296.896,"ARG_OF_PERICENTER":267.8759,"MEAN_ANOMALY":313.9589,"EPHEMERIS_TYPE":0,"CLASSIFICATION_TYPE":"U","NORAD_CAT_ID":67617,"ELEMENT_SET_NO":999,"REV_AT_EPOCH":330,"BSTAR":0.00043699725,"MEAN_MOTION_DOT":0.00071221,"MEAN_MOTION_DDOT":0},{"OBJECT_NAME":"STARLINK-36601","OBJECT_ID":"2026-020B","EPOCH":"2026-02-12T03:20:35.704896","MEAN_MOTION":15.82092452,"ECCENTRICITY":0.00020413,"INCLINATION":42.9977,"RA_OF_ASC_NODE":297.4504,"ARG_OF_PERICENTER":252.8009,"MEAN_ANOMALY":107.264,"EPHEMERIS_TYPE":0,"CLASSIFICATION_TYPE":"U","NORAD_CAT_ID":67618,"ELEMENT_SET_NO":999,"REV_AT_EPOCH":205,"BSTAR":0.0014366393,"MEAN_MOTION_DOT":0.00314339,"MEAN_MOTION_DDOT":0},{"OBJECT_NAME":"STARLINK-36119","OBJECT_ID":"2026-020C","EPOCH":"2026-02-12T06:00:02.999808","MEAN_MOTION":15.76383581,"ECCENTRICITY":0.00020623,"INCLINATION":42.9989,"RA_OF_ASC_NODE":296.865,"ARG_OF_PERICENTER":264.0749,"MEAN_ANOMALY":330.1992,"EPHEMERIS_TYPE":0,"CLASSIFICATION_TYPE":"U","NORAD_CAT_ID":67619,"ELEMENT_SET_NO":999,"REV_AT_EPOCH":330,"BSTAR":-9.7201829e-5,"MEAN_MOTION_DOT":-0.00016299,"MEAN_MOTION_DDOT":0},{"OBJECT_NAME":"STARLINK-36607","OBJECT_ID":"2026-020D","EPOCH":"2026-02-12T03:18:02.463264","MEAN_MOTION":15.82070905,"ECCENTRICITY":0.00022699,"INCLINATION":42.9984,"RA_OF_ASC_NODE":297.4352,"ARG_OF_PERICENTER":249.0875,"MEAN_ANOMALY":110.9754,"EPHEMERIS_TYPE":0,"CLASSIFICATION_TYPE":"U","NORAD_CAT_ID":67620,"ELEMENT_SET_NO":999,"REV_AT_EPOCH":205,"BSTAR":0.0012431658,"MEAN_MOTION_DOT":0.00270269,"MEAN_MOTION_DDOT":0},{"OBJECT_NAME":"STARLINK-36615","OBJECT_ID":"2026-020E","EPOCH":"2026-02-12T03:18:58.638816","MEAN_MOTION":15.82115066,"ECCENTRICITY":0.00018078,"INCLINATION":42.998,"RA_OF_ASC_NODE":297.4414,"ARG_OF_PERICENTER":275.0992,"MEAN_ANOMALY":84.9674,"EPHEMERIS_TYPE":0,"CLASSIFICATION_TYPE":"U","NORAD_CAT_ID":67621,"ELEMENT_SET_NO":999,"REV_AT_EPOCH":205,"BSTAR":0.0014306376,"MEAN_MOTION_DOT":0.00313315,"MEAN_MOTION_DDOT":0},{"OBJECT_NAME":"STARLINK-36614","OBJECT_ID":"2026-020F","EPOCH":"2026-02-12T06:00:02.999808","MEAN_MOTION":15.76414461,"ECCENTRICITY":0.00023714,"INCLINATION":43.0019,"RA_OF_ASC_NODE":296.8027,"ARG_OF_PERICENTER":264.518,"MEAN_ANOMALY":354.6145,"EPHEMERIS_TYPE":0,"CLASSIFICATION_TYPE":"U","NORAD_CAT_ID":67622,"ELEMENT_SET_NO":999,"REV_AT_EPOCH":330,"BSTAR":-0.00041970424,"MEAN_MOTION_DOT":-0.00068438,"MEAN_MOTION_DDOT":0}]
