STARLINK-36605          
1 67604U 26018R   26043.25003472 -.01957975  00000+0 -12093-1 0  9998
2 67604  97.2836 107.7835 0001714  93.2074 208.0025 15.80185250  3251
STARLINK-36281          
1 67605U 26018S   26043.25003472 -.00018060  00000+0 -93723-4 0  9993
2 67605  97.2836 107.7807 0001498  89.5505 205.7409 15.80819118  3300
STARLINK-35843          
1 67606U 26018T   26043.25003472 -.00035520  00000+0 -18535-3 0  9991
2 67606  97.2836 107.7876 0001223  96.7805 215.0701 15.80827787  3317
STARLINK-36351          
1 67607U 26018U   26043.25003472 -.00033983  00000+0 -17707-3 0  9993
2 67607  97.2837 107.7896 0001114  87.9136 228.9494 15.80852990  3315
STARLINK-36411          
1 67608U 26018V   26043.25003472 -.00037583  00000+0 -19605-3 0  9993
2 67608  97.2811 107.7923 0001056  77.6377 246.9849 15.80846193  3308
STARLINK-36312          
1 67609U 26018W   26043.25003472 -.00052889  00000+0 -27651-3 0  9990
2 67609  97.2814 107.7955 0001126  84.2956 247.0835 15.80858828  3318
STARLINK-36387          
1 67610U 26018X   26043.25003472 -.00031502  00000+0 -16429-3 0  9992
2 67610  97.2816 107.7984 0001350  94.0962 245.4885 15.80818746  3311
STARLINK-36636          
1 67611U 26018Y   26043.25003472 -.00144337  00000+0 -76336-3 0  9997
2 67611  97.2747 107.7997 0001550  68.9245 276.7395 15.80870556  3269
STARLINK-36407          
1 67612U 26018Z   26043.25003472 -.00012026  00000+0 -62119-4 0  9992
2 67612  97.2809 107.8031 0001089  94.8441 256.0297 15.80820619  3360
STARLINK-36597          
1 67613U 26018AA  26043.25003472 -.00031623  00000+0 -16467-3 0  9991
2 67613  97.2805 107.8051 0001426  71.6849 285.0003 15.80852493  3260
STARLINK-36548          
1 67617U 26020A   26043.25003472  .00071221  00000+0  43700-3 0  9994
2 67617  42.9986 296.8960 0001787 267.8759 313.9589 15.76349425  3304
STARLINK-36601          
1 67618U 26020B   26043.13930214  .00314339  00000+0  14366-2 0  9990
2 67618  42.9977 297.4504 0002041 252.8009 107.2640 15.82092452  2057
STARLINK-36119          
1 67619U 26020C   26043.25003472 -.00016299  00000+0 -97202-4 0  9999
2 67619  42.9989 296.8650 0002062 264.0749 330.1992 15.76383581  3300
STARLINK-36607          
1 67620U 26020D   26043.13752851  .00270269  00000+0  12432-2 0  9997
2 67620  42.9984 297.4352 0002269 249.0875 110.9754 15.82070905  2056
STARLINK-36615          
1 67621U 26020E   26043.13817869  .00313315  00000+0  14306-2 0  9991
2 67621  42.9980 297.4414 0001807 275.0992  84.9674 15.82115066  2057
STARLINK-36614          
1 67622U 26020F   26043.25003472 -.00068438  00000+0 -41970-3 0  9995
2 67622  43.0019 296.8027 0002371 264.5180 354.6145 15.76414461  3308
